SHIYAN-1 (SY-1)         
1 28220U 04012A   26068.73650539  .00016393  00000+0  54854-3 0  9991
2 28220  97.8764 140.5238 0005873  23.6952 336.4557 15.31043463195862
STARLINK-36076          
1 66588U 25270A   26067.99996192  .00026981  00000+0  98624-3 0  9991
2 66588  42.9986  59.7942 0000593 258.8349 101.2436 15.27585628 17605
